BEIDOU-3 G4             
1 56564U 23066A   23165.66977979 -.00000107  00000+0  00000+0 0  9997
2 56564   3.0436 289.2803 0006788 188.0818 186.4771  1.00272038   387
CZ-3B R/B               
1 56565U 23066B   23165.57239771  .00096474  46864-6  17967-2 0  9998
2 56565  28.2846 262.7454 7207138 197.4681 110.9601  2.42431968   695
STARLINK-30122          
1 56688U 23067A   23165.91667824  .00094368  00000+0  26665-2 0  9997
2 56688  42.9992 309.3180 0001119 306.9813 153.1882 15.35324162  1300
STARLINK-30129          
1 56689U 23067B   23165.91667824 -.02132175  00000+0 -73279-1 0  9993
2 56689  42.9997 309.3145 0001606 281.4777 179.7391 15.32817077  1302
STARLINK-30124          
1 56690U 23067C   23165.91667824 -.02132987  00000+0 -71800-1 0  9994
2 56690  42.9996 309.2925 0001179 294.2483 176.1137 15.33473883  1302
STARLINK-30087          
1 56691U 23067D   23165.91667824 -.02120959  00000+0 -10390+0 0  9996
2 56691  43.0006 309.8097 0000806 275.6664 339.9436 15.21251531  1305
STARLINK-30036          
1 56692U 23067E   23165.91667824 -.02123035  00000+0 -10200+0 0  9995
2 56692  43.0007 309.7744 0000996 256.8800  13.8982 15.21908516  1304
STARLINK-30067          
1 56693U 23067F   23165.91667824 -.02120581  00000+0 -97965-1 0  9994
2 56693  43.0007 309.7037 0000709 271.5404  28.5516 15.23219339  1302
STARLINK-30126          
1 56694U 23067G   23165.91667824 -.02125310  00000+0 -10013+0 0  9997
2 56694  43.0007 309.7377 0001491 258.4940  27.1117 15.22565584  1305
STARLINK-30121          
1 56695U 23067H   23165.91667824 -.02443686  00000+0 -11011+0 0  9996
2 56695  43.0005 309.6688 0001476 283.4273  31.0951 15.23967023  1303
STARLINK-30118          
1 56696U 23067J   23165.75301504  .00284422  40211-4  65425-3 0  9991
2 56696  42.9998 304.6715 0008912 349.0680  11.0002 15.96439969  5102
STARLINK-30130          
1 56697U 23067K   23165.91667824 -.02131967  00000+0 -80611-1 0  9998
2 56697  42.9998 309.3985 0001211 287.2041 138.9314 15.29788171  1304
STARLINK-30068          
1 56698U 23067L   23165.91667824 -.01667771  00000+0 -12291-1 0  9994
2 56698  43.0005 306.8060 0002044 291.1140 110.0416 15.74966158  1308
STARLINK-30127          
1 56699U 23067M   23165.91667824 -.02127999  00000+0 -94507-1 0  9999
2 56699  43.0004 309.6363 0001700 264.1470  63.8886 15.24535135  1307
STARLINK-30053          
1 56700U 23067N   23165.91667824 -.02127318  00000+0 -92629-1 0  9990
2 56700  43.0002 309.6034 0001076 268.9068  72.5881 15.25191454  1309
STARLINK-30125          
1 56701U 23067P   23165.91667824 -.02126447  00000+0 -90766-1 0  9993
2 56701  42.9999 309.5795 0000769 254.7191  99.8937 15.25847394  1309
STARLINK-30117          
1 56702U 23067Q   23165.81718217  .00052151  00000+0  95048-3 0  9992
2 56702  43.0009 309.6675 0003377 301.1790  58.8738 15.48674385  5314
STARLINK-30132          
1 56703U 23067R   23165.91667824 -.02131859  00000+0 -87422-1 0  9993
2 56703  43.0001 309.5119 0001387 273.0406 106.7802 15.27163224  1301
STARLINK-30066          
1 56704U 23067S   23165.91667824 -.02135682  00000+0 -77517-1 0  9996
2 56704  42.9997 309.3479 0000739 262.1836 185.0578 15.31103324  1307
STARLINK-30080          
1 56705U 23067T   23165.91667824 -.00572904  00000+0 -76951-2 0  9999
2 56705  43.0003 307.4589 0001254 281.5953 215.8055 15.58967495  1305
STARLINK-30079          
1 56706U 23067U   23165.91667824 -.02130664  00000+0 -83913-1 0  9990
2 56706  42.9999 309.4538 0001065 285.3481 118.3133 15.28475005  1304
STARLINK-30070          
1 56707U 23067V   23165.91667824 -.02133157  00000+0 -85732-1 0  9992
2 56707  42.9998 309.4818 0001364 279.5750 112.3367 15.27820212  1307
STARLINK-30071          
1 56708U 23067W   23165.91667824 -.02129647  00000+0 -78885-1 0  9993
2 56708  42.9997 309.3732 0001153 288.8144 148.0462 15.30442451  1308
STARLINK-30085          
1 56709U 23067X   23165.91667824 -.02132013  00000+0 -82276-1 0  9994
2 56709  42.9997 309.4254 0001217 284.4551 130.6143 15.29132070  1308
ONEWEB-0561             
1 56710U 23068A   23165.91667824 -.01005397  00000+0 -36225+0 0  9991
2 56710  87.0332 130.4554 0013704 128.2675 223.6010 14.37035543  1305
ONEWEB-0668             
1 56711U 23068B   23165.91667824 -.00004554  00000+0 -63338-3 0  9994
2 56711  86.7228 129.7950 0017229 128.7804 334.9768 14.78090393  1307
ONEWEB-0676             
1 56712U 23068C   23165.91667824 -.00004148  00000+0 -57880-3 0  9999
2 56712  86.7184 129.7861 0017146 130.3915 312.9817 14.77972871  1300
ONEWEB-0677             
1 56713U 23068D   23165.68165342 -.00021633  00000+0 -55521-2 0  9999
2 56713  86.8990 130.4129 0012981 121.5386 238.7089 14.50509681  3831
ONEWEB-0678             
1 56714U 23068E   23165.91667824 -.00005015  00000+0 -71145-3 0  9995
2 56714  86.7185 129.8078 0013125 128.5131 235.2511 14.77262298  1309
ONEWEB-0679             
1 56715U 23068F   23165.91667824 -.00004699  00000+0 -65288-3 0  9994
2 56715  86.7223 129.7932 0017385 129.2748 339.9285 14.78123209  1304
ONEWEB-0680             
1 56716U 23068G   23165.91667824 -.00004158  00000+0 -58343-3 0  9999
2 56716  86.7205 129.7894 0016384 130.9597 305.7656 14.77740992  1307
ONEWEB-0681             
1 56717U 23068H   23165.91667824 -.00004315  00000+0 -61053-3 0  9997
2 56717  86.7210 129.8045 0014365 131.9691 261.9101 14.77397630  1301
ONEWEB-0682             
1 56718U 23068J   23165.91667824 -.00004491  00000+0 -63990-3 0  9995
2 56718  86.7212 129.8076 0013830 131.7399 254.5265 14.77090738  1305
ONEWEB-0683             
1 56719U 23068K   23165.91667824 -.00004674  00000+0 -66604-3 0  9994
2 56719  86.7209 129.8093 0013739 130.7662 247.4221 14.77085306  1309
ONEWEB-0684             
1 56720U 23068L   23165.91667824 -.00004993  00000+0 -71122-3 0  9991
2 56720  86.7209 129.8087 0013114 128.5579 236.9947 14.77093421  1308
ONEWEB-0686             
1 56721U 23068M   23165.91667824 -.00004389  00000+0 -61423-3 0  9994
2 56721  86.7199 129.7835 0017002 129.9718 324.7820 14.77836997  1306
ONEWEB-0694             
1 56722U 23068N   23165.91667824 -.00004208  00000+0 -58954-3 0  9990
2 56722  86.7239 129.7998 0016809 129.7621 319.3576 14.77803983  1304
ONEWEB-0696             
1 56723U 23068P   23165.91667824 -.00004898  00000+0 -69958-3 0  9992
2 56723  86.7203 129.8114 0013376 129.5595 238.7996 14.76973402  1304
ONEWEB-0703             
1 56724U 23068Q   23165.91667824 -.00004760  00000+0 -67841-3 0  9990
2 56724  86.7203 129.8067 0013512 130.4457 243.4902 14.77069868  1305
ONEWEB-0721             
1 56725U 23068R   23165.83722545  .00002135  00000+0  26116-3 0  9996
2 56725  86.6776 129.8123 0012868 128.4410 231.7970 14.82700560  3890
IRIDIUM 181             
1 56726U 23068S   23165.86996885  .00001442  00000+0  18572-3 0  9997
2 56726  86.6764 129.8296 0003262 112.2840 247.8728 14.80378124  3899
IRIDIUM 177             
1 56727U 23068T   23165.86437471  .00001440  00000+0  18566-3 0  9990
2 56727  86.6755 129.8230 0002806 106.5815 253.5715 14.80333614  3894
IRIDIUM 174             
1 56728U 23068U   23165.31817255  .00001539  00000+0  19869-3 0  9999
2 56728  86.6807 130.0616 0002767 105.2732 254.8796 14.80332146  3819
IRIDIUM 178             
1 56729U 23068V   23165.65075370  .00001457  00000+0  18826-3 0  9992
2 56729  86.6752 129.9005 0002417 105.4037 254.7452 14.80260603  3861
IRIDIUM 179             
1 56730U 23068W   23165.84777880  .00001443  00000+0  18644-3 0  9993
2 56730  86.6793 129.8260 0002343 106.3574 253.7905 14.80238465  3890
2023-069A               
1 56731U 23069A   23165.85801729  .00005794  00000+0  19707-3 0  9990
2 56731  41.0048 217.0722 0032406 308.3595  51.4315 15.30436879  3750
2023-069B               
1 56732U 23069B   23165.84920119  .00013403  00000+0  43486-3 0  9992
2 56732  41.0043 217.0029 0030439 308.4442  51.3648 15.31253930  3756
2023-069C               
1 56733U 23069C   23165.58737576  .00007160  00000+0  23733-3 0  9993
2 56733  41.0046 218.5251 0029917 306.8042  53.0035 15.31096122  3713
CZ-2C R/B               
1 56734U 23069D   23165.85687582  .00019674  00000+0  36060-3 0  9995
2 56734  41.1969 213.9383 0053993 215.9126 143.8069 15.47195596  3793
CZ-2C DEB               
1 56735U 23069E   23165.26044499  .00041633  00000+0  27719-2 0  9995
2 56735  41.1425 229.0236 0209419 286.7399  71.0526 14.90210036  3570
CZ-2C DEB               
1 56736U 23069F   23165.86306172  .00059106  00000+0  22755-2 0  9990
2 56736  40.8541 219.7679 0117543 339.4587  20.1524 15.19234204  3730
CZ-2C DEB               
1 56737U 23069G   23165.86962471  .00075383  00000+0  25870-2 0  9997
2 56737  41.0956 218.8860 0111922 346.6240  13.1621 15.23344048  3707
2023-069H               
1 56738U 23069H   23165.63538787  .00036927  00000+0  24050-2 0  9992
2 56738  40.9046 226.6958 0202100 288.7709  69.1268 14.91981636  3630
PROGRESS-MS 23          
1 56740U 23071A   23165.47557068  .00010977  00000+0  19483-3 0  9995
2 56740  51.6399 341.9692 0005215  80.2130 279.9448 15.50748716401370
2023-072A               
1 56743U 23072A   23165.81752052  .00003526  00000+0  23800-3 0  9997
2 56743  97.5420 352.7344 0007698 221.5798 138.4845 15.07229358  3071
SNIPE 4                 
1 56744U 23072B   23165.81671265  .00005011  00000+0  33568-3 0  9997
2 56744  97.5504 352.7585 0007734 222.8225 137.2401 15.07320113  3078
SNIPE 2                 
1 56745U 23072C   23165.81493305  .00005461  00000+0  36410-3 0  9993
2 56745  97.5513 352.7628 0008011 226.6838 133.3722 15.07454487  3073
2023-072D               
1 56746U 23072D   23165.81288219  .00006198  00000+0  41073-3 0  9999
2 56746  97.5515 352.7655 0008337 230.4669 129.5822 15.07621671  3071
2023-072E               
1 56747U 23072E   23165.81094429  .00005374  00000+0  35545-3 0  9990
2 56747  97.5517 352.7679 0008803 233.6189 126.4228 15.07751487  3075
